STARLINK-31358          
1 58977U 24031N   26068.86202153  .00007251  00000+0  25657-3 0  9997
2 58977  53.1603 295.5891 0001137 106.8746 253.2379 15.30215488116544
2025-313BC              
1 67298U 25313BC  26068.18968176  .00075331  00000+0  26410-2 0  9997
2 67298  97.3985 144.8110 0008478 328.9209  31.1528 15.29126358  7890
